start=new Date('2021-08-22T00:00:00.000Z').valueOf();
sats=[{"INCLINATION":"53.0520","TIME_SYSTEM":"UTC","BSTAR":"-0.00232540000000","MEAN_ANOMALY":"213.6939","SITE":"AFETR","NORAD_CAT_ID":"48446","ECCENTRICITY":"0.00016090","OBJECT_TYPE":"PAYLOAD","CENTER_NAME":"EARTH","TLE_LINE1":"1 48446U 21040U   21234.25002315 -.00034762  00000-0 -23254-2 0  9995","EPOCH":"2021-08-22T06:00:02.000160","MEAN_MOTION":"15.06412499","OBJECT_NAME":"STARLINK-2247","REF_FRAME":"TEME","FILE":"3101174","DECAY_DATE":null,"RA_OF_ASC_NODE":"75.6076","MEAN_ELEMENT_THEORY":"SGP4","PERIAPSIS":"546.061","PERIOD":"95.591","APOAPSIS":"548.290","MEAN_MOTION_DOT":"-0.00034762","SEMIMAJOR_AXIS":"6925.310","TLE_LINE2":"2 48446  53.0520  75.6076 0001609  83.3956 213.6939 15.06412499 17646","GP_ID":"183219001","OBJECT_ID":"2021-040U","MEAN_MOTION_DDOT":"0.0000000000000","RCS_SIZE":"LARGE","EPHEMERIS_TYPE":"0","CLASSIFICATION_TYPE":"U","ELEMENT_SET_NO":"999","ARG_OF_PERICENTER":"83.3956","LAUNCH_DATE":"2021-05-09","COUNTRY_CODE":"US","REV_AT_EPOCH":"1764"},{"PERIAPSIS":"546.028","PERIOD":"95.593","RA_OF_ASC_NODE":"77.1056","MEAN_ELEMENT_THEORY":"SGP4","FILE":"3100976","DECAY_DATE":null,"REF_FRAME":"TEME","TLE_LINE1":"1 48447U 21040V   21233.91668981  .00011838  00000-0  81268-3 0  9992","OBJECT_NAME":"STARLINK-2269","MEAN_MOTION":"15.06381754","EPOCH":"2021-08-21T22:00:01.999584","CENTER_NAME":"EARTH","OBJECT_TYPE":"PAYLOAD","ECCENTRICITY":"0.00017930","NORAD_CAT_ID":"48447","BSTAR":"0.00081268000000","SITE":"AFETR","MEAN_ANOMALY":"224.2648","INCLINATION":"53.0528","TIME_SYSTEM":"UTC","REV_AT_EPOCH":"1686","LAUNCH_DATE":"2021-05-09","COUNTRY_CODE":"US","ARG_OF_PERICENTER":"84.2063","ELEMENT_SET_NO":"999","EPHEMERIS_TYPE":"0","CLASSIFICATION_TYPE":"U","RCS_SIZE":"LARGE","OBJECT_ID":"2021-040V","MEAN_MOTION_DDOT":"0.0000000000000","GP_ID":"183191831","TLE_LINE2":"2 48447  53.0528  77.1056 0001793  84.2063 224.2648 15.06381754 16860","MEAN_MOTION_DOT":"0.00011838","SEMIMAJOR_AXIS":"6925.404","APOAPSIS":"548.511"},{"MEAN_MOTION":"15.06402074","TLE_LINE1":"1 48448U 21040W   21234.16667824 -.00025570  00000-0 -17037-2 0  9998","EPOCH":"2021-08-22T04:00:00.999936","OBJECT_NAME":"STARLINK-2632","CENTER_NAME":"EARTH","PERIAPSIS":"545.889","PERIOD":"95.592","RA_OF_ASC_NODE":"75.9833","MEAN_ELEMENT_THEORY":"SGP4","DECAY_DATE":null,"FILE":"3101174","REF_FRAME":"TEME","BSTAR":"-0.00170370000000","SITE":"AFETR","MEAN_ANOMALY":"344.8018","INCLINATION":"53.0524","TIME_SYSTEM":"UTC","OBJECT_TYPE":"PAYLOAD","ECCENTRICITY":"0.00019040","NORAD_CAT_ID":"48448","LAUNCH_DATE":"2021-05-09","COUNTRY_CODE":"US","ARG_OF_PERICENTER":"105.1461","ELEMENT_SET_NO":"999","REV_AT_EPOCH":"1761","GP_ID":"183219499","TLE_LINE2":"2 48448  53.0524  75.9833 0001904 105.1461 344.8018 15.06402074 17618","MEAN_MOTION_DOT":"-0.00025570","SEMIMAJOR_AXIS":"6925.342","APOAPSIS":"548.526","EPHEMERIS_TYPE":"0","CLASSIFICATION_TYPE":"U","RCS_SIZE":"LARGE","OBJECT_ID":"2021-040W","MEAN_MOTION_DDOT":"0.0000000000000"},{"REV_AT_EPOCH":"1759","ELEMENT_SET_NO":"999","COUNTRY_CODE":"US","LAUNCH_DATE":"2021-05-09","ARG_OF_PERICENTER":"78.6709","RCS_SIZE":"LARGE","MEAN_MOTION_DDOT":"0.0000000000000","OBJECT_ID":"2021-040X","CLASSIFICATION_TYPE":"U","EPHEMERIS_TYPE":"0","SEMIMAJOR_AXIS":"6925.372","MEAN_MOTION_DOT":"0.00011488","APOAPSIS":"548.448","GP_ID":"183191323","TLE_LINE2":"2 48449  53.0532  77.1055 0001749  78.6709 249.7245 15.06392489 17594","FILE":"3100976","DECAY_DATE":null,"REF_FRAME":"TEME","PERIOD":"95.593","PERIAPSIS":"546.025","MEAN_ELEMENT_THEORY":"SGP4","RA_OF_ASC_NODE":"77.1055","CENTER_NAME":"EARTH","EPOCH":"2021-08-21T22:00:01.999584","TLE_LINE1":"1 48449U 21040X   21233.91668981  .00011488  00000-0  78900-3 0  9994","MEAN_MOTION":"15.06392489","OBJECT_NAME":"STARLINK-2655","NORAD_CAT_ID":"48449","OBJECT_TYPE":"PAYLOAD","ECCENTRICITY":"0.00017490","TIME_SYSTEM":"UTC","INCLINATION":"53.0532","MEAN_ANOMALY":"249.7245","SITE":"AFETR","BSTAR":"0.00078900000000"},{"REF_FRAME":"TEME","DECAY_DATE":null,"FILE":"3101174","RA_OF_ASC_NODE":"75.9825","MEAN_ELEMENT_THEORY":"SGP4","PERIAPSIS":"546.080","PERIOD":"95.592","CENTER_NAME":"EARTH","TLE_LINE1":"1 48450U 21040Y   21234.16667824 -.00029659  00000-0 -19802-2 0  9995","MEAN_MOTION":"15.06405301","EPOCH":"2021-08-22T04:00:00.999936","OBJECT_NAME":"STARLINK-2660","NORAD_CAT_ID":"48450","ECCENTRICITY":"0.00016130","OBJECT_TYPE":"PAYLOAD","INCLINATION":"53.0523","TIME_SYSTEM":"UTC","BSTAR":"-0.00198020000000","MEAN_ANOMALY":"185.4831","SITE":"AFETR","REV_AT_EPOCH":"1763","ELEMENT_SET_NO":"999","ARG_OF_PERICENTER":"79.3954","LAUNCH_DATE":"2021-05-09","COUNTRY_CODE":"US","OBJECT_ID":"2021-040Y","MEAN_MOTION_DDOT":"0.0000000000000","RCS_SIZE":"LARGE","EPHEMERIS_TYPE":"0","CLASSIFICATION_TYPE":"U","APOAPSIS":"548.314","MEAN_MOTION_DOT":"-0.00029659","SEMIMAJOR_AXIS":"6925.332","TLE_LINE2":"2 48450  53.0523  75.9825 0001613  79.3954 185.4831 15.06405301 17637","GP_ID":"183219497"},{"NORAD_CAT_ID":"48451","ECCENTRICITY":"0.00017390","OBJECT_TYPE":"PAYLOAD","INCLINATION":"53.0531","TIME_SYSTEM":"UTC","BSTAR":"0.00076759000000","MEAN_ANOMALY":"290.5211","SITE":"AFETR","REF_FRAME":"TEME","FILE":"3100976","DECAY_DATE":null,"RA_OF_ASC_NODE":"77.1064","MEAN_ELEMENT_THEORY":"SGP4","PERIAPSIS":"546.049","PERIOD":"95.593","CENTER_NAME":"EARTH","MEAN_MOTION":"15.06387164","TLE_LINE1":"1 48451U 21040Z   21233.91668981  .00011166  00000-0  76759-3 0  9990","EPOCH":"2021-08-21T22:00:01.999584","OBJECT_NAME":"STARLINK-2652","OBJECT_ID":"2021-040Z","MEAN_MOTION_DDOT":"0.0000000000000","RCS_SIZE":"LARGE","EPHEMERIS_TYPE":"0","CLASSIFICATION_TYPE":"U","APOAPSIS":"548.457","MEAN_MOTION_DOT":"0.00011166","SEMIMAJOR_AXIS":"6925.388","TLE_LINE2":"2 48451  53.0531  77.1064 0001739  77.8489 290.5211 15.06387164 17592","GP_ID":"183191333","REV_AT_EPOCH":"1759","ELEMENT_SET_NO":"999","ARG_OF_PERICENTER":"77.8489","LAUNCH_DATE":"2021-05-09","COUNTRY_CODE":"US"},{"REV_AT_EPOCH":"1759","ELEMENT_SET_NO":"999","COUNTRY_CODE":"US","LAUNCH_DATE":"2021-05-09","ARG_OF_PERICENTER":"83.1049","RCS_SIZE":"LARGE","MEAN_MOTION_DDOT":"0.0000000000000","OBJECT_ID":"2021-040AA","CLASSIFICATION_TYPE":"U","EPHEMERIS_TYPE":"0","SEMIMAJOR_AXIS":"6925.414","MEAN_MOTION_DOT":"0.00011295","APOAPSIS":"548.519","GP_ID":"183191824","TLE_LINE2":"2 48452  53.0526  77.1056 0001790  83.1049 270.4917 15.06378563 17590","DECAY_DATE":null,"FILE":"3100976","REF_FRAME":"TEME","PERIOD":"95.594","PERIAPSIS":"546.040","MEAN_ELEMENT_THEORY":"SGP4","RA_OF_ASC_NODE":"77.1056","CENTER_NAME":"EARTH","TLE_LINE1":"1 48452U 21040AA  21233.91668981  .00011295  00000-0  77638-3 0  9991","OBJECT_NAME":"STARLINK-2703","MEAN_MOTION":"15.06378563","EPOCH":"2021-08-21T22:00:01.999584","NORAD_CAT_ID":"48452","OBJECT_TYPE":"PAYLOAD","ECCENTRICITY":"0.00017900","TIME_SYSTEM":"UTC","INCLINATION":"53.0526","SITE":"AFETR","MEAN_ANOMALY":"270.4917","BSTAR":"0.00077638000000"},{"REV_AT_EPOCH":"1763","ELEMENT_SET_NO":"999","ARG_OF_PERICENTER":"81.6976","LAUNCH_DATE":"2021-05-09","COUNTRY_CODE":"US","OBJECT_ID":"2021-040AB","MEAN_MOTION_DDOT":"0.0000000000000","RCS_SIZE":"LARGE","EPHEMERIS_TYPE":"0","CLASSIFICATION_TYPE":"U","APOAPSIS":"548.398","MEAN_MOTION_DOT":"-0.00030221","SEMIMAJOR_AXIS":"6925.348","TLE_LINE2":"2 48453  53.0535  75.9836 0001711  81.6976 223.2012 15.06400243 17636","GP_ID":"183219013","REF_FRAME":"TEME","DECAY_DATE":null,"FILE":"3101175","RA_OF_ASC_NODE":"75.9836","MEAN_ELEMENT_THEORY":"SGP4","PERIAPSIS":"546.028","PERIOD":"95.592","CENTER_NAME":"EARTH","EPOCH":"2021-08-22T04:00:00.999936","TLE_LINE1":"1 48453U 21040AB  21234.16667824 -.00030221  00000-0 -20185-2 0  9991","MEAN_MOTION":"15.06400243","OBJECT_NAME":"STARLINK-2620","NORAD_CAT_ID":"48453","ECCENTRICITY":"0.00017110","OBJECT_TYPE":"PAYLOAD","INCLINATION":"53.0535","TIME_SYSTEM":"UTC","BSTAR":"-0.00201850000000","MEAN_ANOMALY":"223.2012","SITE":"AFETR"},{"FILE":"3101175","DECAY_DATE":null,"REF_FRAME":"TEME","PERIOD":"95.591","PERIAPSIS":"545.974","MEAN_ELEMENT_THEORY":"SGP4","RA_OF_ASC_NODE":"75.9822","CENTER_NAME":"EARTH","TLE_LINE1":"1 48454U 21040AC  21234.16667824 -.00030025  00000-0 -20045-2 0  9999","MEAN_MOTION":"15.06413396","OBJECT_NAME":"STARLINK-2654","EPOCH":"2021-08-22T04:00:00.999936","NORAD_CAT_ID":"48454","OBJECT_TYPE":"PAYLOAD","ECCENTRICITY":"0.00017310","TIME_SYSTEM":"UTC","INCLINATION":"53.0523","SITE":"AFETR","MEAN_ANOMALY":"249.1621","BSTAR":"-0.00200450000000","REV_AT_EPOCH":"1763","ELEMENT_SET_NO":"999","COUNTRY_CODE":"US","LAUNCH_DATE":"2021-05-09","ARG_OF_PERICENTER":"75.6433","RCS_SIZE":"LARGE","MEAN_MOTION_DDOT":"0.0000000000000","OBJECT_ID":"2021-040AC","CLASSIFICATION_TYPE":"U","EPHEMERIS_TYPE":"0","SEMIMAJOR_AXIS":"6925.308","MEAN_MOTION_DOT":"-0.00030025","APOAPSIS":"548.371","GP_ID":"183219014","TLE_LINE2":"2 48454  53.0523  75.9822 0001731  75.6433 249.1621 15.06413396 17638"},{"TLE_LINE1":"1 48455U 21040AD  21234.16667824 -.00029459  00000-0 -19659-2 0  9998","MEAN_MOTION":"15.06419333","OBJECT_NAME":"STARLINK-2497","EPOCH":"2021-08-22T04:00:00.999936","CENTER_NAME":"EARTH","PERIAPSIS":"546.037","PERIOD":"95.591","RA_OF_ASC_NODE":"76.0095","MEAN_ELEMENT_THEORY":"SGP4","DECAY_DATE":null,"FILE":"3101175","REF_FRAME":"TEME","BSTAR":"-0.00196590000000","MEAN_ANOMALY":"255.9632","SITE":"AFETR","INCLINATION":"53.0506","TIME_SYSTEM":"UTC","OBJECT_TYPE":"PAYLOAD","ECCENTRICITY":"0.00016140","NORAD_CAT_ID":"48455","LAUNCH_DATE":"2021-05-09","COUNTRY_CODE":"US","ARG_OF_PERICENTER":"88.8647","ELEMENT_SET_NO":"999","REV_AT_EPOCH":"1695","GP_ID":"183219519","TLE_LINE2":"2 48455  53.0506  76.0095 0001614  88.8647 255.9632 15.06419333 16955","MEAN_MOTION_DOT":"-0.00029459","SEMIMAJOR_AXIS":"6925.289","APOAPSIS":"548.272","EPHEMERIS_TYPE":"0","CLASSIFICATION_TYPE":"U","RCS_SIZE":"LARGE","OBJECT_ID":"2021-040AD","MEAN_MOTION_DDOT":"0.0000000000000"}];
